STARLINK-4566           
1 53693U 22105AX  23158.26267474 -.00000072  00000+0 -96942-6 0  9999
2 53693  97.6564  39.4661 0002826  53.0616 307.0867 15.01254479 42244
YAOGAN-33 02            
1 53698U 22106A   23159.05479803  .00000235  00000+0  59364-4 0  9998
2 53698  98.1850 166.4368 0001706 114.1211 246.0168 14.59317728 40562
STARLINK-4725           
1 53700U 22107A   23158.93045783 -.00001113  00000+0 -51880-4 0  9998
2 53700  53.2172  78.7752 0001073 101.2403 258.8710 15.08831562 42270
STARLINK-4711           
1 53701U 22107B   23159.05925127 -.00000343  00000+0 -34589-5 0  9994
2 53701  53.2178  78.1607 0001130  77.1902 282.9217 15.08836705 42295
STARLINK-4724           
1 53702U 22107C   23159.01834955  .00000759  00000+0  65790-4 0  9995
2 53702  53.2171  63.6501 0001136  82.3333 277.7788 15.08833346 42498
STARLINK-4731           
1 53703U 22107D   23158.80998980  .00000489  00000+0  48853-4 0  9992
2 53703  53.2179  79.4460 0001416 104.7611 255.3538 15.08831592 43009
STARLINK-4714           
1 53704U 22107E   23158.79069339  .00000069  00000+0  22445-4 0  9991
2 53704  53.2162  80.0329 0001240  85.8841 274.2292 15.08833802 42836
STARLINK-4717           
1 53705U 22107F   23159.05196984  .00000369  00000+0  41252-4 0  9999
2 53705  53.2180  78.8231 0001253  81.2280 278.8854 15.08833676 42287
STARLINK-4716           
1 53706U 22107G   23158.57355218  .00000412  00000+0  43987-4 0  9999
2 53706  53.2158  80.8099 0001635  90.8805 269.2374 15.08833530 42214
STARLINK-4667           
1 53707U 22107H   23158.89692491 -.00000476  00000+0 -11836-4 0  9992
2 53707  53.2181  64.3125 0001208  96.9899 263.1230 15.08832785 43221
STARLINK-4694           
1 53708U 22107J   23158.88218955  .00000483  00000+0  48430-4 0  9997
2 53708  53.2173  64.2318 0001138  78.0584 282.0535 15.08831994 43229
STARLINK-4685           
1 53709U 22107K   23158.80304460  .00000255  00000+0  34134-4 0  9990
2 53709  53.2156  84.4133 0001374  84.9605 275.1544 15.08834640 42629
STARLINK-4627           
1 53711U 22107M   23159.07905744 -.00000816  00000+0 -33171-4 0  9990
2 53711  53.2169  83.2843 0001039  95.0333 265.0778 15.08837945 42224
STARLINK-4683           
1 53712U 22107N   23158.80768742  .00000226  00000+0  32295-4 0  9995
2 53712  53.2164  84.4496 0001071  88.2424 271.8691 15.08832694 42649
STARLINK-4698           
1 53713U 22107P   23158.92953883  .00000585  00000+0  54868-4 0  9999
2 53713  53.2164  88.7494 0001315  85.6487 274.4656 15.08831024 42136
STARLINK-4688           
1 53714U 22107Q   23159.00729626  .00001187  00000+0  92699-4 0  9999
2 53714  53.2177  63.5776 0001005 103.2718 256.8386 15.08830345 42493
STARLINK-4686           
1 53715U 22107R   23158.80810913  .00000557  00000+0  53100-4 0  9991
2 53715  53.2164  89.4138 0001305  89.0313 271.0828 15.08834294 42569
STARLINK-4699           
1 53716U 22107S   23158.80442410  .00000546  00000+0  52422-4 0  9999
2 53716  53.2175  89.3910 0001356  97.3965 262.7181 15.08837293 42550
STARLINK-4695           
1 53718U 22107U   23158.80073821  .00000368  00000+0  41210-4 0  9992
2 53718  53.2166  89.3678 0001048  88.8636 271.2476 15.08834936 42554
STARLINK-4644           
1 53719U 22107V   23159.01055170  .00000020  00000+0  19341-4 0  9999
2 53719  53.2187  58.5739 0001057  91.5598 268.5515 15.08838035 42548
STARLINK-4642           
1 53720U 22107W   23158.81179233 -.00000126  00000+0  10174-4 0  9998
2 53720  53.2173  89.4390 0001414  76.9974 283.1176 15.08834252 42568
STARLINK-4707           
1 53721U 22107X   23159.01787902  .00000913  00000+0  75419-4 0  9996
2 53721  53.2166  88.5905 0001194  91.2729 268.8400 15.08835582 42136
STARLINK-4700           
1 53722U 22107Y   23159.09148953 -.00000229  00000+0  36803-5 0  9998
2 53722  53.2164  88.3351 0001248  92.3457 267.7678 15.08838650 42143
STARLINK-4705           
1 53723U 22107Z   23159.09244513 -.00000253  00000+0  21634-5 0  9991
2 53723  53.2172  88.3433 0001191  89.3769 270.7359 15.08841787 42148
STARLINK-4663           
1 53724U 22107AA  23159.08043320  .00000568  00000+0  53760-4 0  9996
2 53724  53.2168  88.2703 0001146  92.4884 267.6239 15.08839446 42147
STARLINK-4697           
1 53726U 22107AC  23159.08780615 -.00000431  00000+0 -89932-5 0  9995
2 53726  53.2169  88.3174 0001088  82.3581 277.7535 15.08838930 42148
STARLINK-4701           
1 53727U 22107AD  23159.09885975 -.00000025  00000+0  16490-4 0  9998
2 53727  53.2164  88.3848 0000953  86.6978 273.4123 15.08835572 42144
STARLINK-4640           
1 53728U 22107AE  23159.09517875  .00000007  00000+0  18505-4 0  9998
2 53728  53.2159  88.3630 0001364  87.2376 272.8773 15.08833419 42146
STARLINK-4651           
1 53729U 22107AF  23158.84495836 -.00000729  00000+0 -27730-4 0  9996
2 53729  53.2172  89.6432 0001287  96.9563 263.1576 15.08831301 42732
STARLINK-4641           
1 53730U 22107AG  23159.10254672  .00000211  00000+0  31377-4 0  9995
2 53730  53.2167  88.4078 0001206 101.1468 258.9659 15.08833292 42145
STARLINK-4636           
1 53731U 22107AH  23159.04736380 -.00000543  00000+0 -16008-4 0  9994
2 53731  53.2166  88.7725 0001226 110.7805 249.3319 15.08832032 42137
STARLINK-4661           
1 53732U 22107AJ  23159.10719038 -.00000761  00000+0 -29716-4 0  9995
2 53732  53.2171  88.4351 0001104  94.1143 265.9975 15.08833872 42147
STARLINK-4574           
1 53733U 22107AK  23159.05473325  .00000740  00000+0  64595-4 0  9995
2 53733  53.2167  88.8195 0001237  93.3722 266.7412 15.08830382 42131
STARLINK-4616           
1 53734U 22107AL  23159.03999518 -.00000024  00000+0  16553-4 0  9998
2 53734  53.2173  88.7264 0001115  83.8004 276.3115 15.08829921 42131
STARLINK-4618           
1 53735U 22107AM  23158.61951781 -.00000165  00000+0  77036-5 0  9992
2 53735  53.2164 100.3571 0001028  94.3126 265.7983 15.08837487 42567
STARLINK-4652           
1 53736U 22107AN  23158.25615829  .00000651  00000+0  59008-4 0  9990
2 53736  53.2166  92.3642 0001199  94.7060 265.4069 15.08842036 42646
STARLINK-4646           
1 53737U 22107AP  23159.08688045  .00000693  00000+0  61625-4 0  9997
2 53737  53.2161  98.2973 0001085  96.0880 264.0236 15.08839705 42003
STARLINK-4662           
1 53738U 22107AQ  23159.07951484 -.00001286  00000+0 -62741-4 0  9998
2 53738  53.2168  98.2522 0001147  91.8105 268.3018 15.08844039 42004
STARLINK-4607           
1 53740U 22107AS  23159.09056946  .00000081  00000+0  23152-4 0  9995
2 53740  53.2165  98.3221 0001232  90.7553 269.3580 15.08838169 42003
STARLINK-4614           
1 53741U 22107AT  23158.93648765  .00000179  00000+0  29344-4 0  9991
2 53741  53.2173  83.8934 0001320  86.0723 274.0420 15.08837193 42190
STARLINK-4637           
1 53742U 22107AU  23159.09425917  .00002249  00000+0  15940-3 0  9998
2 53742  53.2168  98.3438 0001299 103.4431 256.6706 15.08822875 42004
STARLINK-4645           
1 53743U 22107AV  23159.10899364  .00001009  00000+0  81490-4 0  9999
2 53743  53.2165  98.4357 0001213  81.7685 278.3445 15.08836593 42001
STARLINK-4670           
1 53744U 22107AW  23159.09889306  .00000037  00000+0  20419-4 0  9997
2 53744  53.2163  98.3708 0001282  95.1033 265.0106 15.08842711 42007
STARLINK-4656           
1 53745U 22107AX  23159.04643255  .00000600  00000+0  55781-4 0  9990
2 53745  53.2164  98.7523 0001294 100.0982 260.0156 15.08838022 41997
STARLINK-4589           
1 53746U 22107AY  23159.10530905  .00001051  00000+0  84144-4 0  9991
2 53746  53.2160  98.4130 0001278  83.2481 276.8656 15.08833415 42007
STARLINK-4669           
1 53748U 22107BA  23159.11636122 -.00000673  00000+0 -24193-4 0  9991
2 53748  53.2162  98.4785 0001242  93.8985 266.2149 15.08836691 42003
STARLINK-4680           
1 53749U 22107BB  23159.12003984  .00000438  00000+0  45624-4 0  9996
2 53749  53.2161  98.4657 0001220  88.9708 271.1424 15.08836768 42001
STARLINK-4612           
1 53750U 22107BC  23159.12372784 -.00000064  00000+0  14038-4 0  9996
2 53750  53.2158  98.5242 0001191  95.2986 264.8142 15.08840644 42000
SHERPA-LTC2             
1 53754U 22107BG  23158.72556202  .00005716  00000+0  35187-3 0  9999
2 53754  53.2361 155.1168 0466269  58.2575 306.2958 14.50798702 41009
CENTISPACE-1 S3         
1 53757U 22108A   23159.05073308  .00000676  00000+0  18457-3 0  9992
2 53757  53.5333 295.0110 0008509 289.8242  70.1814 14.58308661 40115
CENTISPACE-1 S4         
1 53758U 22108B   23159.04824601  .00000927  00000+0  23828-3 0  9999
2 53758  53.5306 295.5807 0007977 271.8920  88.1140 14.58337150 40101
YAOGAN-35 05A           
1 53760U 22109A   23159.10990008  .00016933  00000+0  65683-3 0  9994
2 53760  34.9970  93.9439 0006571  56.8457 303.2888 15.25247280 41975
YAOGAN-35 05B           
1 53761U 22109B   23159.10642284  .00016690  00000+0  64469-3 0  9996
2 53761  34.9948  93.8931 0012699 340.5057  19.5172 15.25332848 41938
YAOGAN-35 05C           
1 53763U 22109D   23159.10944643  .00012611  00000+0  48927-3 0  9992
2 53763  34.9944  93.9225 0005128 242.1433 117.8763 15.25292250 41937
EUTELSAT KONNECT VHTS   
1 53765U 22110A   23158.65070902  .00000013  00000+0  00000+0 0  9992
2 53765   0.0576 100.2389 0005048 303.9020  88.5480  1.00236285  2713
STARLINK-4718           
1 53773U 22111A   23159.14393577  .00000293  00000+0  36521-4 0  9995
2 53773  53.2161 118.1125 0001285  88.1326 271.9813 15.08831985 40944
STARLINK-4719           
1 53774U 22111B   23159.14023963  .00002464  00000+0  17288-3 0  9995
2 53774  53.2160 118.0895 0001043 108.8320 251.2786 15.08831575 40948
STARLINK-4722           
1 53775U 22111C   23159.03817320  .00000474  00000+0  47881-4 0  9994
2 53775  53.2156 108.8985 0001167  86.2360 273.8766 15.08831648 41064
STARLINK-4708           
1 53776U 22111D   23159.03314007  .00000968  00000+0  78868-4 0  9996
2 53776  53.2162 113.8523 0001311  77.7859 282.3280 15.08839831 40994
